<?xml version='1.0' encoding='utf-8'?>
<kml xmlns="http://www.opengis.net/kml/2.2">
  <Document>
    <name>MAAP Central Virginia Flight Area</name>
    <description>Source KML folder is labeled COA DRAFT 108625; provisional reference outline</description>
    <Placemark>
      <name>MAAP Central Virginia Flight Area</name>
      <Polygon>
        <tessellate>1</tessellate>
        <outerBoundaryIs>
          <LinearRing>
            <coordinates>
							-79.52370869977634,36.54123500988848,0 -79.31802427901846,36.71641063688933,0 -77.96722025155373,37.00475312570968,0 -78.01480362536715,37.02043407465951,0 -78.04216589717215,37.05686516287463,0 -78.03686455503049,37.10559072254618,0 -77.98769821722099,37.14034953471315,0 -77.93107178935665,37.14144657748523,0 -77.88482199425516,37.1171111818057,0 -77.8759093731115,37.10076653784735,0 -77.85891685381526,37.10079719595409,0 -77.88777017982046,38.03299182000197,0 -78.27004098210071,38.14973753679434,0 -78.38337324273094,37.91810112525145,0 -78.8282115639651,37.68556910797439,0 -79.0253545531568,37.47434994781543,0 -78.95817851101388,37.37434990638065,0 -79.6934018928483,36.54259086648438,0 -79.52370869977634,36.54123500988848,0
						</coordinates>
          </LinearRing>
        </outerBoundaryIs>
      </Polygon>
    </Placemark>
  </Document>
</kml>